{
    "links": {
        "self": "http://www.neowsapp.com/rest/v1/neo/3829486?api_key=iIulBulltgU6a56xZRHN4H3l9WmuAYTsLGpBGhQ2"
    },
    "id": "3829486",
    "neo_reference_id": "3829486",
    "name": "(2018 RX7)",
    "designation": "2018 RX7",
    "nasa_jpl_url": "http://ssd.jpl.nasa.gov/sbdb.cgi?sstr=3829486",
    "absolute_magnitude_h": 23.9,
    "estimated_diameter": {
        "kilometers": {
            "estimated_diameter_min": 0.04411182,
            "estimated_diameter_max": 0.0986370281
        },
        "meters": {
            "estimated_diameter_min": 44.1118199997,
            "estimated_diameter_max": 98.6370281305
        },
        "miles": {
            "estimated_diameter_min": 0.0274098057,
            "estimated_diameter_max": 0.0612901888
        },
        "feet": {
            "estimated_diameter_min": 144.7238235278,
            "estimated_diameter_max": 323.6123073718
        }
    },
    "is_potentially_hazardous_asteroid": false,
    "close_approach_data": [
        {
            "close_approach_date": "2018-10-13",
            "close_approach_date_full": "2018-Oct-13 16:43",
            "epoch_date_close_approach": 1539448980000,
            "relative_velocity": {
                "kilometers_per_second": "6.0548454273",
                "kilometers_per_hour": "21797.4435381334",
                "miles_per_hour": "13544.0837362363"
            },
            "miss_distance": {
                "astronomical": "0.1161675179",
                "lunar": "45.1891644631",
                "kilometers": "17378413.241026873",
                "miles": "10798445.2574139274"
            },
            "orbiting_body": "Earth"
        }
    ],
    "orbital_data": {
        "orbit_id": "9",
        "orbit_determination_date": "2018-10-21 07:09:15",
        "first_observation_date": "2018-09-14",
        "last_observation_date": "2018-10-21",
        "data_arc_in_days": 37,
        "observations_used": 63,
        "orbit_uncertainty": "7",
        "minimum_orbit_intersection": ".11473",
        "jupiter_tisserand_invariant": "3.374",
        "epoch_osculation": "2459000.5",
        "eccentricity": ".5247267944273787",
        "semi_major_axis": "2.321417862881296",
        "inclination": "5.452355668921198",
        "ascending_node_longitude": "2.252280258863069",
        "orbital_period": "1291.898546962199",
        "perihelion_distance": "1.103307709165138",
        "perihelion_argument": "26.77583974718277",
        "aphelion_distance": "3.539528016597455",
        "perihelion_time": "2458412.679524122398",
        "mean_anomaly": "163.8018494668442",
        "mean_motion": ".2786596523748034",
        "equinox": "J2000",
        "orbit_class": {
            "orbit_class_type": "AMO",
            "orbit_class_description": "Near-Earth asteroid orbits similar to that of 1221 Amor",
            "orbit_class_range": "1.017 AU < q (perihelion) < 1.3 AU"
        }
    },
    "is_sentry_object": false
}